GLOBALSTAR M035 [-]     
1 25851U 99037A   24007.69862826 -.00000088  00000+0 -92791-3 0  9997
2 25851  51.9930 149.0669 0013552 202.9163 257.8177 11.04528320 38086
GLOBALSTAR M032 [-]     
1 25852U 99037B   24007.94614144  .00000002  00000+0  21934-2 0  9998
2 25852  51.9984  10.0274 0009065 359.8183   0.2613 11.19049000 75875
GLOBALSTAR M051 [-]     
1 25853U 99037C   24007.92630786 -.00000032  00000+0  98622-3 0  9990
2 25853  51.9762 230.4199 0002046  26.2651 333.8263 11.42195577 72253
GLOBALSTAR M030 [-]     
1 25854U 99037D   24007.94966645 -.00000089  00000+0 -30128-3 0  9999
2 25854  51.9889  69.9249 0004789 176.7538 183.3311 11.55087197 89337
GLOBALSTAR M048 [-]     
1 25872U 99041A   24007.84131627 -.00000079  00000+0 -24996-3 0  9992
2 25872  51.9353 145.3005 0012708 358.6496 171.8474 11.33842464 65277
GLOBALSTAR M026 [-]     
1 25873U 99041B   24007.91163142  .00000014  00000+0  28685-2 0  9993
2 25873  52.0005 272.1049 0002051  83.9282 355.8417 11.06833953 90218
GLOBALSTAR M043 [-]     
1 25874U 99041C   24007.88268078 -.00000057  00000+0  32581-3 0  9993
2 25874  51.9374 231.8740 0013498 131.3828 320.1987 11.25673896 63606
GLOBALSTAR M028 [-]     
1 25875U 99041D   24007.28562382 -.00000110  00000+0 -62675-4 0  9992
2 25875  51.9648 324.1466 0063946   7.5088 352.6717 12.50547404124251
